{"fetched_at":"2026-03-29T16:36:15Z","count":15609,"tles":[{"name":"STARLINK-35693","line1":"1 66490U 25263F   26087.46763869  .00025178  00000+0  92105-3 0  9997","line2":"2 66490  42.9980 244.4003 0001163 277.4152  82.6568 15.27590255 21778","category":"Starlink"}]}