{
  "norad_id": 66490,
  "name": "STARLINK-35693",
  "history": [
    {
      "epoch": "2026-03-28T11:13:23.982816Z",
      "apogee_km": 483.8166844817388,
      "perigee_km": 482.2200936227064,
      "latitude_deg": 4.564743881777287e-05,
      "longitude_deg": -109.83724119956297,
      "height_km": 482.6916416033507,
      "semi_major_axis_km": 6861.155389052222,
      "eccentricity": 0.00011635,
      "inclination_deg": 42.998,
      "raan_deg": 244.4003,
      "arg_perigee_deg": 277.4152,
      "mean_anomaly_deg": 82.6568,
      "mean_motion_rev_day": 15.27590255
    }
  ]
}